[{"OBJECT_NAME":"UNKNOWN","OBJECT_ID":"","EPOCH":"2026-03-20T08:17:33.957888","MEAN_MOTION":15.93413522,"ECCENTRICITY":0.0009475,"INCLINATION":97.6294,"RA_OF_ASC_NODE":106.9899,"ARG_OF_PERICENTER":106.8536,"MEAN_ANOMALY":253.3777,"EPHEMERIS_TYPE":0,"CLASSIFICATION_TYPE":"U","NORAD_CAT_ID":89161,"ELEMENT_SET_NO":999,"REV_AT_EPOCH":56376,"BSTAR":0.0031768,"MEAN_MOTION_DOT":0.01120648,"MEAN_MOTION_DDOT":0.00057617}]
